{
  "type": "FeatureCollection",
  "features": [
    {
      "type": "Feature",
      "properties": {
        "norad_id": 66463,
        "name": "STARLINK-35463",
        "group": "last-30-days",
        "lat": 15.185067680160898,
        "lon": 147.6213269249825,
        "alt_km": 374.37022702336435,
        "timestamp": "2025-12-02T13:52:16.064909+00:00",
        "meta_object_name": "STARLINK-35463",
        "meta_object_id": "2025-262H",
        "meta_epoch": "2025-12-02T06:00:02.999808",
        "meta_mean_motion": 15.65431743,
        "meta_eccentricity": 0.00016935,
        "meta_inclination": 42.9995,
        "meta_ra_of_asc_node": 132.6467,
        "meta_arg_of_pericenter": 268.9411,
        "meta_mean_anomaly": 64.3158,
        "meta_ephemeris_type": 0,
        "meta_classification_type": "U",
        "meta_norad_cat_id": 66463,
        "meta_element_set_no": 999,
        "meta_rev_at_epoch": 395,
        "meta_bstar": -0.023303785,
        "meta_mean_motion_dot": -0.02093685,
        "meta_mean_motion_ddot": 0,
        "tle_line1": "1 66463U 25262H   25336.25003472 -.02093685  00000+0 -23304-1 0  9991",
        "tle_line2": "2 66463  42.9995 132.6467 0001693 268.9411  64.3158 15.65431743  3957"
      },
      "geometry": {
        "type": "Point",
        "coordinates": [
          147.6213269249825,
          15.185067680160898
        ]
      }
    },
    {
      "type": "Feature",
      "properties": {
        "norad_id": 66464,
        "name": "STARLINK-35435",
        "group": "last-30-days",
        "lat": 13.929821935652004,
        "lon": 146.12919869796184,
        "alt_km": 374.52374866251193,
        "timestamp": "2025-12-02T13:52:16.064919+00:00",
        "meta_object_name": "STARLINK-35435",
        "meta_object_id": "2025-262J",
        "meta_epoch": "2025-12-02T06:00:02.999808",
        "meta_mean_motion": 15.65431114,
        "meta_eccentricity": 0.00017075,
        "meta_inclination": 42.9992,
        "meta_ra_of_asc_node": 132.6518,
        "meta_arg_of_pericenter": 269.1316,
        "meta_mean_anomaly": 62.2102,
        "meta_ephemeris_type": 0,
        "meta_classification_type": "U",
        "meta_norad_cat_id": 66464,
        "meta_element_set_no": 999,
        "meta_rev_at_epoch": 395,
        "meta_bstar": -0.023320289,
        "meta_mean_motion_dot": -0.02094943,
        "meta_mean_motion_ddot": 0,
        "tle_line1": "1 66464U 25262J   25336.25003472 -.02094943  00000+0 -23320-1 0  9998",
        "tle_line2": "2 66464  42.9992 132.6518 0001707 269.1316  62.2102 15.65431114  3953"
      },
      "geometry": {
        "type": "Point",
        "coordinates": [
          146.12919869796184,
          13.929821935652004
        ]
      }
    },
    {
      "type": "Feature",
      "properties": {
        "norad_id": 66465,
        "name": "STARLINK-35448",
        "group": "last-30-days",
        "lat": 17.665830498975524,
        "lon": 150.6635860995444,
        "alt_km": 374.11776307482705,
        "timestamp": "2025-12-02T13:52:16.064929+00:00",
        "meta_object_name": "STARLINK-35448",
        "meta_object_id": "2025-262K",
        "meta_epoch": "2025-12-02T06:00:02.999808",
        "meta_mean_motion": 15.65433003,
        "meta_eccentricity": 0.0001779,
        "meta_inclination": 42.9995,
        "meta_ra_of_asc_node": 132.6374,
        "meta_arg_of_pericenter": 267.9871,
        "meta_mean_anomaly": 69.1029,
        "meta_ephemeris_type": 0,
        "meta_classification_type": "U",
        "meta_norad_cat_id": 66465,
        "meta_element_set_no": 999,
        "meta_rev_at_epoch": 395,
        "meta_bstar": -0.023323231,
        "meta_mean_motion_dot": -0.02095375,
        "meta_mean_motion_ddot": 0,
        "tle_line1": "1 66465U 25262K   25336.25003472 -.02095375  00000+0 -23323-1 0  9992",
        "tle_line2": "2 66465  42.9995 132.6374 0001779 267.9871  69.1029 15.65433003  3951"
      },
      "geometry": {
        "type": "Point",
        "coordinates": [
          150.6635860995444,
          17.665830498975524
        ]
      }
    },
    {
      "type": "Feature",
      "properties": {
        "norad_id": 66466,
        "name": "STARLINK-35388",
        "group": "last-30-days",
        "lat": 18.889114087478358,
        "lon": 152.2148523124127,
        "alt_km": 373.8474716215942,
        "timestamp": "2025-12-02T13:52:16.064940+00:00",
        "meta_object_name": "STARLINK-35388",
        "meta_object_id": "2025-262L",
        "meta_epoch": "2025-12-02T06:00:02.999808",
        "meta_mean_motion": 15.65428523,
        "meta_eccentricity": 0.00017184,
        "meta_inclination": 42.9995,
        "meta_ra_of_asc_node": 132.6314,
        "meta_arg_of_pericenter": 272.245,
        "meta_mean_anomaly": 66.7664,
        "meta_ephemeris_type": 0,
        "meta_classification_type": "U",
        "meta_norad_cat_id": 66466,
        "meta_element_set_no": 999,
        "meta_rev_at_epoch": 395,
        "meta_bstar": -0.023282904,
        "meta_mean_motion_dot": -0.02091834,
        "meta_mean_motion_ddot": 0,
        "tle_line1": "1 66466U 25262L   25336.25003472 -.02091834  00000+0 -23283-1 0  9994",
        "tle_line2": "2 66466  42.9995 132.6314 0001718 272.2450  66.7664 15.65428523  3950"
      },
      "geometry": {
        "type": "Point",
        "coordinates": [
          152.2148523124127,
          18.889114087478358
        ]
      }
    },
    {
      "type": "Feature",
      "properties": {
        "norad_id": 66467,
        "name": "STARLINK-35682",
        "group": "last-30-days",
        "lat": 16.431383134013444,
        "lon": 149.13337506537445,
        "alt_km": 374.2799378760028,
        "timestamp": "2025-12-02T13:52:16.064953+00:00",
        "meta_object_name": "STARLINK-35682",
        "meta_object_id": "2025-262M",
        "meta_epoch": "2025-12-02T06:00:02.999808",
        "meta_mean_motion": 15.65433215,
        "meta_eccentricity": 0.00018629,
        "meta_inclination": 42.9992,
        "meta_ra_of_asc_node": 132.642,
        "meta_arg_of_pericenter": 268.4752,
        "meta_mean_anomaly": 66.6973,
        "meta_ephemeris_type": 0,
        "meta_classification_type": "U",
        "meta_norad_cat_id": 66467,
        "meta_element_set_no": 999,
        "meta_rev_at_epoch": 395,
        "meta_bstar": -0.02332876,
        "meta_mean_motion_dot": -0.02095899,
        "meta_mean_motion_ddot": 0,
        "tle_line1": "1 66467U 25262M   25336.25003472 -.02095899  00000+0 -23329-1 0  9991",
        "tle_line2": "2 66467  42.9992 132.6420 0001862 268.4752  66.6973 15.65433215  3954"
      },
      "geometry": {
        "type": "Point",
        "coordinates": [
          149.13337506537445,
          16.431383134013444
        ]
      }
    },
    {
      "type": "Feature",
      "properties": {
        "norad_id": 66468,
        "name": "STARLINK-35331",
        "group": "last-30-days",
        "lat": 20.098602448432,
        "lon": 153.79040916851125,
        "alt_km": 373.74447859633983,
        "timestamp": "2025-12-02T13:52:16.064963+00:00",
        "meta_object_name": "STARLINK-35331",
        "meta_object_id": "2025-262N",
        "meta_epoch": "2025-12-02T06:00:02.999808",
        "meta_mean_motion": 15.65437022,
        "meta_eccentricity": 0.00017876,
        "meta_inclination": 42.9993,
        "meta_ra_of_asc_node": 132.6276,
        "meta_arg_of_pericenter": 271.1293,
        "meta_mean_anomaly": 69.793,
        "meta_ephemeris_type": 0,
        "meta_classification_type": "U",
        "meta_norad_cat_id": 66468,
        "meta_element_set_no": 999,
        "meta_rev_at_epoch": 395,
        "meta_bstar": -0.023394321,
        "meta_mean_motion_dot": -0.02101242,
        "meta_mean_motion_ddot": 0,
        "tle_line1": "1 66468U 25262N   25336.25003472 -.02101242  00000+0 -23394-1 0  9994",
        "tle_line2": "2 66468  42.9993 132.6276 0001787 271.1293  69.7930 15.65437022  3959"
      },
      "geometry": {
        "type": "Point",
        "coordinates": [
          153.79040916851125,
          20.098602448432
        ]
      }
    },
    {
      "type": "Feature",
      "properties": {
        "norad_id": 66469,
        "name": "STARLINK-35451",
        "group": "last-30-days",
        "lat": 23.637516038144298,
        "lon": 158.66675947846446,
        "alt_km": 373.35798565512323,
        "timestamp": "2025-12-02T13:52:16.064972+00:00",
        "meta_object_name": "STARLINK-35451",
        "meta_object_id": "2025-262P",
        "meta_epoch": "2025-12-02T06:00:02.999808",
        "meta_mean_motion": 15.65428909,
        "meta_eccentricity": 0.00017551,
        "meta_inclination": 42.999,
        "meta_ra_of_asc_node": 132.6115,
        "meta_arg_of_pericenter": 268.1893,
        "meta_mean_anomaly": 78.4906,
        "meta_ephemeris_type": 0,
        "meta_classification_type": "U",
        "meta_norad_cat_id": 66469,
        "meta_element_set_no": 999,
        "meta_rev_at_epoch": 395,
        "meta_bstar": -0.023274347,
        "meta_mean_motion_dot": -0.02091226,
        "meta_mean_motion_ddot": 0,
        "tle_line1": "1 66469U 25262P   25336.25003472 -.02091226  00000+0 -23274-1 0  9992",
        "tle_line2": "2 66469  42.9990 132.6115 0001755 268.1893  78.4906 15.65428909  3950"
      },
      "geometry": {
        "type": "Point",
        "coordinates": [
          158.66675947846446,
          23.637516038144298
        ]
      }
    }
  ]
}